NORAD_CAT_ID,OBJECT_NAME,OBJECT_TYPE,EPOCH,MEAN_MOTION,ECCENTRICITY,INCLINATION,RA_OF_ASC_NODE,ARG_OF_PERICENTER,MEAN_ANOMALY,BSTAR,MEAN_MOTION_DOT,MEAN_MOTION_DDOT,TLE_LINE0,TLE_LINE1,TLE_LINE2,SEMIMAJOR_AXIS,PERIOD,APOGEE,PERIGEE,DECAYED
54169.0,STARLINK-5282,PAYLOAD,2023-10-30 04:02:12,15.08843711,0.0001707,53.2163,271.1894,100.4909,259.6275,0.00027111,4.03e-05,0.0,0 STARLINK-5282,1 54169U 22141N   23303.16820316  .00004030  00000-0  27111-3 0  9995,2 54169  53.2163 271.1894 0001707 100.4909 259.6275 15.08843711 55809,6917.869,95.437,540.915,538.553,0.0
54169.0,STARLINK-5282,PAYLOAD,2023-10-30 15:09:54,15.08839845,0.0001664,53.2174,269.1068,89.7676,270.3507,0.00011097,1.478e-05,0.0,0 STARLINK-5282,1 54169U 22141N   23303.63188484  .00001478  00000-0  11097-3 0  9999,2 54169  53.2174 269.1068 0001664  89.7676 270.3507 15.08839845 55871,6917.881,95.438,540.897,538.595,0.0
54169.0,STARLINK-5282,PAYLOAD,2023-10-31 03:53:00,15.08837362,0.000135,53.2159,266.7273,95.1878,264.9268,0.00010591,1.398e-05,0.0,0 STARLINK-5282,1 54169U 22141N   23304.16180721  .00001398  00000-0  10591-3 0  9993,2 54169  53.2159 266.7273 0001350  95.1878 264.9268 15.08837362 55956,6917.888,95.438,540.687,538.82,0.0
54169.0,STARLINK-5282,PAYLOAD,2023-10-31 15:00:42,15.08839732,0.0001336,53.2157,264.6461,95.2617,264.8528,0.00026723,3.968e-05,0.0,0 STARLINK-5282,1 54169U 22141N   23304.62548919  .00003968  00000-0  26723-3 0  9990,2 54169  53.2157 264.6461 0001336  95.2617 264.8528 15.08839732 56026,6917.881,95.438,540.67,538.822,0.0
54169.0,STARLINK-5282,PAYLOAD,2023-10-31 21:22:14,15.08842745,0.0001372,53.2155,263.4571,91.5339,268.581,0.00033207,5.001e-05,0.0,0 STARLINK-5282,1 54169U 22141N   23304.89044939  .00005001  00000-0  33207-3 0  9997,2 54169  53.2155 263.4571 0001372  91.5339 268.5810 15.08842745 56060,6917.872,95.437,540.686,538.788,0.0
54169.0,STARLINK-5282,PAYLOAD,2023-11-01 06:54:33,15.08856367,0.0001481,53.2162,261.6714,97.2867,262.8293,0.00077358,0.0001205,0.0,0 STARLINK-5282,1 54169U 22141N   23305.28788634  .00012050  00000-0  77358-3 0  9995,2 54169  53.2162 261.6714 0001481  97.2867 262.8293 15.08856367 56121,6917.83,95.437,540.72,538.671,0.0
54169.0,STARLINK-5282,PAYLOAD,2023-11-01 14:51:29,15.08846603,0.0001482,53.2189,260.1859,95.0654,265.0507,0.00033664,5.075e-05,0.0,0 STARLINK-5282,1 54169U 22141N   23305.61908765  .00005075  00000-0  33664-3 0  9992,2 54169  53.2189 260.1859 0001482  95.0654 265.0507 15.08846603 56175,6917.86,95.437,540.75,538.7,0.0
54169.0,STARLINK-5282,PAYLOAD,2023-11-02 06:45:20,15.08862503,0.0001612,53.2186,257.2119,103.5065,256.6107,0.00066321,0.00010289,0.0,0 STARLINK-5282,1 54169U 22141N   23306.28148168  .00010289  00000-0  66321-3 0  9998,2 54169  53.2186 257.2119 0001612 103.5065 256.6107 15.08862503 56274,6917.812,95.436,540.792,538.561,0.0
54169.0,STARLINK-5282,PAYLOAD,2023-11-02 21:03:48,15.08840822,0.0001345,53.2179,254.5353,102.9353,257.1789,0.0002642,3.919e-05,0.0,0 STARLINK-5282,1 54169U 22141N   23306.87764625  .00003919  00000-0  26420-3 0  9993,2 54169  53.2179 254.5353 0001345 102.9353 257.1789 15.08840822 56364,6917.878,95.438,540.673,538.812,0.0
54169.0,STARLINK-5282,PAYLOAD,2023-11-03 03:25:21,15.08851012,0.0001307,53.2166,253.3466,93.6202,266.494,0.00069536,0.00010799,0.0,0 STARLINK-5282,1 54169U 22141N   23307.14260547  .00010799  00000-0  69536-3 0  9997,2 54169  53.2166 253.3466 0001307  93.6202 266.4940 15.08851012 56409,6917.847,95.437,540.616,538.808,0.0
54169.0,STARLINK-5282,PAYLOAD,2023-11-03 12:57:40,15.08847691,0.0001362,53.217,251.5624,93.0225,267.0923,0.00074009,0.00011513,0.0,0 STARLINK-5282,1 54169U 22141N   23307.54004715  .00011513  00000-0  74009-3 0  9990,2 54169  53.2170 251.5624 0001362  93.0225 267.0923 15.08847691 56462,6917.857,95.437,540.664,538.78,0.0
54169.0,STARLINK-5282,PAYLOAD,2023-11-03 20:54:35,15.08847809,0.0001709,53.2173,250.0778,96.9295,263.1892,-0.00016128,-2.855e-05,0.0,0 STARLINK-5282,1 54169U 22141N   23307.87124841 -.00002855  00000-0 -16128-3 0  9998,2 54169  53.2173 250.0778 0001709  96.9295 263.1892 15.08847809 56512,6917.857,95.437,540.904,538.539,0.0
54169.0,STARLINK-5282,PAYLOAD,2023-11-04 03:16:08,15.08843534,0.0001392,53.2176,248.8905,96.8535,263.2616,0.00021383,3.117e-05,0.0,0 STARLINK-5282,1 54169U 22141N   23308.13620854  .00003117  00000-0  21383-3 0  9992,2 54169  53.2176 248.8905 0001392  96.8535 263.2616 15.08843534 56556,6917.87,95.437,540.698,538.772,0.0
54169.0,STARLINK-5282,PAYLOAD,2023-11-05 04:42:18,15.08875246,0.0001262,53.216,244.1292,90.7948,269.3189,0.0015442,0.00024397,0.0,0 STARLINK-5282,1 54169U 22141N   23309.19604455  .00024397  00000-0  15442-2 0  9999,2 54169  53.2160 244.1292 0001262  90.7948 269.3189 15.08875246 56719,6917.773,95.435,540.511,538.765,0.0
54169.0,STARLINK-5282,PAYLOAD,2023-11-06 02:57:40,15.08913965,0.0001594,53.2154,239.9653,75.0054,285.1115,0.0031042,0.00049564,0.0,0 STARLINK-5282,1 54169U 22141N   23310.12338848  .00049564  00000-0  31042-2 0  9991,2 54169  53.2154 239.9653 0001594  75.0054 285.1115 15.08913965 56858,6917.654,95.433,540.622,538.417,0.0
54169.0,STARLINK-5282,PAYLOAD,2023-11-06 04:33:03,15.08921097,0.0001639,53.2162,239.6652,77.8653,282.2523,0.0032447,0.00051847,0.0,0 STARLINK-5282,1 54169U 22141N   23310.18962541  .00051847  00000-0  32447-2 0  9997,2 54169  53.2162 239.6652 0001639  77.8653 282.2523 15.08921097 56865,6917.633,95.432,540.631,538.364,0.0
54169.0,STARLINK-5282,PAYLOAD,2023-11-06 22:02:18,15.0883822,9.7e-05,53.2154,236.397,146.916,213.1893,0.0011425,0.00017941,0.0,0 STARLINK-5282,1 54169U 22141N   23310.91826877  .00017941  00000-0  11425-2 0  9999,2 54169  53.2154 236.3970 0000970 146.9160 213.1893 15.08838220 56971,6917.886,95.438,540.422,539.08,0.0
54169.0,STARLINK-5282,PAYLOAD,2023-11-07 02:48:29,15.08777404,0.0001681,53.2155,235.5052,66.924,293.1929,0.00060887,9.399e-05,0.0,0 STARLINK-5282,1 54169U 22141N   23311.11700408  .00009399  00000-0  60887-3 0  9998,2 54169  53.2155 235.5052 0001681  66.9240 293.1929 15.08777404 57003,6918.072,95.442,541.1,538.774,0.0
54169.0,STARLINK-5282,PAYLOAD,2023-11-07 12:20:48,15.08800096,0.0001473,53.2151,233.7202,89.3513,270.7648,0.0006651,0.00010301,0.0,0 STARLINK-5282,1 54169U 22141N   23311.51445285  .00010301  00000-0  66510-3 0  9995,2 54169  53.2151 233.7202 0001473  89.3513 270.7648 15.08800096 57066,6918.002,95.44,540.886,538.848,0.0
54169.0,STARLINK-5282,PAYLOAD,2023-11-08 01:03:54,15.08839666,0.0001361,53.2162,231.3409,88.583,271.5318,0.0020646,0.00032723,0.0,0 STARLINK-5282,1 54169U 22141N   23312.04438063  .00032723  00000-0  20646-2 0  9991,2 54169  53.2162 231.3409 0001361  88.5830 271.5318 15.08839666 57147,6917.881,95.438,540.688,538.805,0.0
54169.0,STARLINK-5282,PAYLOAD,2023-11-08 04:14:40,15.08857371,0.0001527,53.2155,230.7469,85.9849,274.1318,0.0024687,0.00039239,0.0,0 STARLINK-5282,1 54169U 22141N   23312.17685923  .00039239  00000-0  24687-2 0  9992,2 54169  53.2155 230.7469 0001527  85.9849 274.1318 15.08857371 57167,6917.827,95.436,540.749,538.636,0.0
54169.0,STARLINK-5282,PAYLOAD,2023-11-08 21:43:54,15.0886572,0.000149,53.2167,227.4742,90.0764,270.0399,0.002009,0.00031853,0.0,0 STARLINK-5282,1 54169U 22141N   23312.90549738  .00031853  00000-0  20090-2 0  9994,2 54169  53.2167 227.4742 0001490  90.0764 270.0399 15.08865720 57272,6917.802,95.436,540.698,538.636,0.0
54169.0,STARLINK-5282,PAYLOAD,2023-11-09 00:54:41,15.08866037,0.0001497,53.2168,226.8793,79.9315,280.1846,0.0016137,0.00025506,0.0,0 STARLINK-5282,1 54169U 22141N   23313.03797585  .00025506  00000-0  16137-2 0  9999,2 54169  53.2168 226.8793 0001497  79.9315 280.1846 15.08866037 57290,6917.801,95.436,540.701,538.63,0.0
54169.0,STARLINK-5282,PAYLOAD,2023-11-10 00:45:27,15.08858426,0.0001337,53.2167,222.4186,85.1717,274.9428,0.00094238,0.00014749,0.0,0 STARLINK-5282,1 54169U 22141N   23314.03157233  .00014749  00000-0  94238-3 0  9996,2 54169  53.2167 222.4186 0001337  85.1717 274.9428 15.08858426 57442,6917.824,95.436,540.614,538.764,0.0
54169.0,STARLINK-5282,PAYLOAD,2023-11-11 00:36:14,15.08843283,0.0001377,53.217,217.9596,98.3636,261.7512,0.00021601,3.152e-05,0.0,0 STARLINK-5282,1 54169U 22141N   23315.02517313  .00003152  00000-0  21601-3 0  9995,2 54169  53.2170 217.9596 0001377  98.3636 261.7512 15.08843283 57599,6917.87,95.437,540.688,538.783,0.0
54169.0,STARLINK-5282,PAYLOAD,2023-11-11 10:08:33,15.08842686,0.000115,53.2159,216.1743,93.0521,267.0603,0.00012225,1.658e-05,0.0,0 STARLINK-5282,1 54169U 22141N   23315.42261398  .00001658  00000-0  12225-3 0  9999,2 54169  53.2159 216.1743 0001150  93.0521 267.0603 15.08842686 57658,6917.872,95.437,540.533,538.942,0.0
54169.0,STARLINK-5282,PAYLOAD,2023-11-11 21:16:16,15.08834035,0.0001412,53.2162,214.0971,110.5916,249.5228,1.97e-05,2.6e-07,0.0,0 STARLINK-5282,1 54169U 22141N   23315.88629833  .00000026  00000-0  19700-4 0  9995,2 54169  53.2162 214.0971 0001412 110.5916 249.5228 15.08834035 57721,6917.899,95.438,540.74,538.787,0.0
54169.0,STARLINK-5282,PAYLOAD,2023-11-12 00:27:02,15.0883786,0.0001579,53.2158,213.5013,120.2803,239.8346,0.00013265,1.824e-05,0.0,0 STARLINK-5282,1 54169U 22141N   23316.01877695  .00001824  00000-0  13265-3 0  9998,2 54169  53.2158 213.5013 0001579 120.2803 239.8346 15.08837860 57748,6917.887,95.438,540.844,538.66,0.0
54169.0,STARLINK-5282,PAYLOAD,2023-11-12 09:59:21,15.08840636,0.0001513,53.216,211.7171,117.6538,242.4608,0.00016711,2.373e-05,0.0,0 STARLINK-5282,1 54169U 22141N   23316.41621701  .00002373  00000-0  16711-3 0  9996,2 54169  53.2160 211.7171 0001513 117.6538 242.4608 15.08840636 57802,6917.878,95.438,540.79,538.697,0.0
54169.0,STARLINK-5282,PAYLOAD,2023-11-12 21:07:03,15.08835894,0.0001505,53.2155,209.6359,119.1139,241.0004,3.8146e-05,3.19e-06,0.0,0 STARLINK-5282,1 54169U 22141N   23316.87989986  .00000319  00000-0  38146-4 0  9993,2 54169  53.2155 209.6359 0001505 119.1139 241.0004 15.08835894 57877,6917.893,95.438,540.799,538.717,0.0
